NORAD_CAT_ID,OBJECT_NAME,OBJECT_TYPE,EPOCH,MEAN_MOTION,ECCENTRICITY,INCLINATION,RA_OF_ASC_NODE,ARG_OF_PERICENTER,MEAN_ANOMALY,BSTAR,MEAN_MOTION_DOT,MEAN_MOTION_DDOT,TLE_LINE0,TLE_LINE1,TLE_LINE2,SEMIMAJOR_AXIS,PERIOD,APOGEE,PERIGEE,DECAYED
53855.0,STARLINK-4703,PAYLOAD,2023-06-18 11:43:21,15.08834416,0.0001278,53.2171,81.4951,87.9319,272.182,4.9124e-05,4.94e-06,0.0,0 STARLINK-4703,1 53855U 22114AP  23169.48843988  .00000494  00000-0  49124-4 0  9990,2 53855  53.2171  81.4951 0001278  87.9319 272.1820 15.08834416 42738,6917.897,95.438,540.647,538.878,0.0
53855.0,STARLINK-4703,PAYLOAD,2023-06-19 00:26:26,15.08846894,0.0001107,53.2165,79.1153,92.3387,267.7731,0.00033362,5.027e-05,0.0,0 STARLINK-4703,1 53855U 22114AP  23170.01835683  .00005027  00000-0  33362-3 0  9997,2 53855  53.2165  79.1153 0001107  92.3387 267.7731 15.08846894 42278,6917.859,95.437,540.49,538.959,0.0
53855.0,STARLINK-4703,PAYLOAD,2023-06-19 03:37:12,15.0885305,0.0001225,53.2168,78.5211,86.956,273.1572,0.00069373,0.00010774,0.0,0 STARLINK-4703,1 53855U 22114AP  23170.15083752  .00010774  00000-0  69373-3 0  9990,2 53855  53.2168  78.5211 0001225  86.9560 273.1572 15.08853050 42830,6917.841,95.437,540.553,538.858,0.0
53855.0,STARLINK-4703,PAYLOAD,2023-06-20 03:27:59,15.08855711,0.0001198,53.2169,74.061,74.2605,285.852,0.00077606,0.0001209,0.0,0 STARLINK-4703,1 53855U 22114AP  23171.14443910  .00012090  00000-0  77606-3 0  9997,2 53855  53.2169  74.0610 0001198  74.2605 285.8520 15.08855711 42440,6917.832,95.437,540.526,538.869,0.0
53855.0,STARLINK-4703,PAYLOAD,2023-06-20 17:46:27,15.08846842,0.0001329,53.2174,71.3824,77.7541,282.36,0.00035785,5.413e-05,0.0,0 STARLINK-4703,1 53855U 22114AP  23171.74059936  .00005413  00000-0  35785-3 0  9997,2 53855  53.2174  71.3824 0001329  77.7541 282.3600 15.08846842 42532,6917.859,95.437,540.644,538.805,0.0
53855.0,STARLINK-4703,PAYLOAD,2023-06-20 20:57:13,15.08850405,0.0001287,53.2171,70.7881,78.3959,281.7178,0.00036558,5.537e-05,0.0,0 STARLINK-4703,1 53855U 22114AP  23171.87307786  .00005537  00000-0  36558-3 0  9996,2 53855  53.2171  70.7881 0001287  78.3959 281.7178 15.08850405 43093,6917.849,95.437,540.604,538.823,0.0
53855.0,STARLINK-4703,PAYLOAD,2023-06-21 09:40:18,15.08844599,0.0001204,53.2171,68.407,77.4738,282.6389,0.00016381,2.32e-05,0.0,0 STARLINK-4703,1 53855U 22114AP  23172.40299604  .00002320  00000-0  16381-3 0  9994,2 53855  53.2171  68.4070 0001204  77.4738 282.6389 15.08844599 43171,6917.866,95.437,540.564,538.898,0.0
53855.0,STARLINK-4703,PAYLOAD,2023-06-21 19:12:38,15.08833365,0.0001462,53.2171,66.6257,89.1631,270.9529,-0.00012027,-2.201e-05,0.0,0 STARLINK-4703,1 53855U 22114AP  23172.80044236 -.00002201  00000-0 -12027-3 0  9990,2 53855  53.2171  66.6257 0001462  89.1631 270.9529 15.08833365 43238,6917.901,95.438,540.777,538.754,0.0
53855.0,STARLINK-4703,PAYLOAD,2023-06-21 23:58:47,15.0884084,0.0001264,53.2164,65.7368,91.7248,268.3889,6.183e-05,6.96e-06,0.0,0 STARLINK-4703,1 53855U 22114AP  23172.99916043  .00000696  00000-0  61830-4 0  9995,2 53855  53.2164  65.7368 0001264  91.7248 268.3889 15.08840840 42725,6917.878,95.438,540.617,538.868,0.0
53855.0,STARLINK-4703,PAYLOAD,2023-06-23 01:24:57,15.08845494,0.0001291,53.2162,60.9795,101.8014,258.3123,0.0003211,4.827e-05,0.0,0 STARLINK-4703,1 53855U 22114AP  23174.05900162  .00004827  00000-0  32110-3 0  9997,2 53855  53.2162  60.9795 0001291 101.8014 258.3123 15.08845494 42885,6917.864,95.437,540.622,538.835,0.0
53855.0,STARLINK-4703,PAYLOAD,2023-06-23 17:18:49,15.08840474,0.0001197,53.2162,58.0049,97.7623,262.3505,0.00016225,2.295e-05,0.0,0 STARLINK-4703,1 53855U 22114AP  23174.72140333  .00002295  00000-0  16225-3 0  9993,2 53855  53.2162  58.0049 0001197  97.7623 262.3505 15.08840474 42982,6917.879,95.438,540.572,538.916,0.0
53855.0,STARLINK-4703,PAYLOAD,2023-06-24 01:15:44,15.08850866,0.0001293,53.2164,56.5179,109.4536,250.6596,0.00028761,4.294e-05,0.0,0 STARLINK-4703,1 53855U 22114AP  23175.05259842  .00004294  00000-0  28761-3 0  9995,2 53855  53.2164  56.5179 0001293 109.4536 250.6596 15.08850866 43035,6917.847,95.437,540.607,538.818,0.0
53855.0,STARLINK-4703,PAYLOAD,2023-06-24 15:34:13,15.08841235,0.0001369,53.2163,53.8417,90.1639,269.951,0.00012292,1.669e-05,0.0,0 STARLINK-4703,1 53855U 22114AP  23175.64876364  .00001669  00000-0  12292-3 0  9999,2 53855  53.2163  53.8417 0001369  90.1639 269.9510 15.08841235 43122,6917.877,95.437,540.689,538.795,0.0
53855.0,STARLINK-4703,PAYLOAD,2023-06-26 00:57:19,15.08845358,0.0001295,53.2167,47.5948,94.5041,265.6099,0.00013023,1.786e-05,0.0,0 STARLINK-4703,1 53855U 22114AP  23177.03980354  .00001786  00000-0  13023-3 0  9992,2 53855  53.2167  47.5948 0001295  94.5041 265.6099 15.08845358 43336,6917.864,95.437,540.625,538.833,0.0
53855.0,STARLINK-4703,PAYLOAD,2023-06-26 21:37:19,15.08843574,0.0001238,53.2171,43.7283,96.1818,263.9315,0.00017472,2.494e-05,0.0,0 STARLINK-4703,1 53855U 22114AP  23177.90092500  .00002494  00000-0  17472-3 0  9994,2 53855  53.2171  43.7283 0001238  96.1818 263.9315 15.08843574 43462,6917.869,95.437,540.591,538.878,0.0
53855.0,STARLINK-4703,PAYLOAD,2023-06-27 19:52:44,15.0883317,0.0001359,53.218,39.5637,103.7003,256.4141,0.00024541,3.619e-05,0.0,0 STARLINK-4703,1 53855U 22114AP  23178.82829152  .00003619  00000-0  24541-3 0  9992,2 53855  53.2180  39.5637 0001359 103.7003 256.4141 15.08833170 43604,6917.901,95.438,540.706,538.826,0.0
53855.0,STARLINK-4703,PAYLOAD,2023-06-27 21:28:07,15.08842084,0.0001265,53.2177,39.2667,97.2374,262.8762,0.00010888,1.445e-05,0.0,0 STARLINK-4703,1 53855U 22114AP  23178.89452726  .00001445  00000-0  10888-3 0  9992,2 53855  53.2177  39.2667 0001265  97.2374 262.8762 15.08842084 43619,6917.874,95.437,540.614,538.864,0.0
53855.0,STARLINK-4703,PAYLOAD,2023-06-28 22:54:17,15.08843395,0.0001029,53.2174,34.5117,95.1374,264.9735,9.2424e-05,1.184e-05,0.0,0 STARLINK-4703,1 53855U 22114AP  23179.95436729  .00001184  00000-0  92424-4 0  9992,2 53855  53.2174  34.5117 0001029  95.1374 264.9735 15.08843395 43775,6917.87,95.437,540.447,539.023,0.0
53855.0,STARLINK-4703,PAYLOAD,2023-06-29 19:34:18,15.08839131,9.27e-05,53.2179,30.646,97.0416,263.0681,5.0289e-05,5.13e-06,0.0,0 STARLINK-4703,1 53855U 22114AP  23180.81549258  .00000513  00000-0  50289-4 0  9999,2 53855  53.2179  30.6460 0000927  97.0416 263.0681 15.08839131 43900,6917.883,95.438,540.389,539.107,0.0
53855.0,STARLINK-4703,PAYLOAD,2023-06-30 21:00:28,15.08841813,0.0001018,53.2186,25.8896,103.6598,256.4508,6.717e-05,7.81e-06,0.0,0 STARLINK-4703,1 53855U 22114AP  23181.87533078  .00000781  00000-0  67170-4 0  9993,2 53855  53.2186  25.8896 0001018 103.6598 256.4508 15.08841813 44066,6917.875,95.437,540.444,539.036,0.0
53855.0,STARLINK-4703,PAYLOAD,2023-07-01 17:40:29,15.08837285,0.0001044,53.2189,22.0237,102.461,257.6499,8.0403e-05,9.92e-06,0.0,0 STARLINK-4703,1 53855U 22114AP  23182.73645446  .00000992  00000-0  80403-4 0  9990,2 53855  53.2189  22.0237 0001044 102.4610 257.6499 15.08837285 44192,6917.889,95.438,540.476,539.031,0.0
53855.0,STARLINK-4703,PAYLOAD,2023-07-02 20:42:02,15.08845714,9.52e-05,53.2181,16.9676,93.6495,266.4606,9.014e-05,1.147e-05,0.0,0 STARLINK-4703,1 53855U 22114AP  23183.86252939  .00001147  00000-0  90140-4 0  9998,2 53855  53.2181  16.9676 0000952  93.6495 266.4606 15.08845714 44365,6917.863,95.437,540.387,539.069,0.0
53855.0,STARLINK-4703,PAYLOAD,2023-07-03 17:22:03,15.08842025,9.44e-05,53.218,13.1021,91.3946,268.7155,4.9676e-05,5.03e-06,0.0,0 STARLINK-4703,1 53855U 22114AP  23184.72365169  .00000503  00000-0  49676-4 0  9997,2 53855  53.2180  13.1021 0000944  91.3946 268.7155 15.08842025 44494,6917.874,95.437,540.392,539.086,0.0
53855.0,STARLINK-4703,PAYLOAD,2023-07-04 18:48:13,15.08844296,9.15e-05,53.2181,8.3429,100.8891,259.2204,2.2976e-05,7.8e-07,0.0,0 STARLINK-4703,1 53855U 22114AP  23185.78348971  .00000078  00000-0  22976-4 0  9997,2 53855  53.2181   8.3429 0000915 100.8891 259.2204 15.08844296 44656,6917.867,95.437,540.365,539.099,0.0
53855.0,STARLINK-4703,PAYLOAD,2023-07-05 18:39:01,15.08834518,8.3e-05,53.2178,3.8859,78.2765,281.832,3.0676e-05,2.01e-06,0.0,0 STARLINK-4703,1 53855U 22114AP  23186.77709781  .00000201  00000-0  30676-4 0  9991,2 53855  53.2178   3.8859 0000830  78.2765 281.8320 15.08834518 44806,6917.897,95.438,540.336,539.188,0.0
53855.0,STARLINK-4703,PAYLOAD,2023-07-07 04:02:06,15.08850188,8.6e-05,53.2179,357.6402,76.0344,284.0744,-8.7347e-05,-1.678e-05,0.0,0 STARLINK-4703,1 53855U 22114AP  23188.16813365 -.00001678  00000-0 -87347-4 0  9998,2 53855  53.2179 357.6402 0000860  76.0344 284.0744 15.08850188 45013,6917.849,95.437,540.309,539.119,0.0
53855.0,STARLINK-4703,PAYLOAD,2023-07-07 10:23:39,15.08839253,8.95e-05,53.2179,356.4507,77.7442,282.365,8.2382e-05,1.024e-05,0.0,0 STARLINK-4703,1 53855U 22114AP  23188.43309854  .00001024  00000-0  82382-4 0  9998,2 53855  53.2179 356.4507 0000895  77.7442 282.3650 15.08839253 45052,6917.883,95.438,540.367,539.129,0.0
53855.0,STARLINK-4703,PAYLOAD,2023-07-08 18:11:22,15.08845852,9.09e-05,53.2181,350.5039,83.9283,276.1813,9.6151e-05,1.243e-05,0.0,0 STARLINK-4703,1 53855U 22114AP  23189.75789410  .00001243  00000-0  96151-4 0  9996,2 53855  53.2181 350.5039 0000909  83.9283 276.1813 15.08845852 45254,6917.863,95.437,540.356,539.099,0.0
53855.0,STARLINK-4703,PAYLOAD,2023-07-09 03:43:41,15.0884142,8.96e-05,53.2182,348.7198,86.0305,274.0789,2.4024e-05,9.5e-07,0.0,0 STARLINK-4703,1 53855U 22114AP  23190.15533802  .00000095  00000-0  24024-4 0  9998,2 53855  53.2182 348.7198 0000896  86.0305 274.0789 15.08841420 45317,6917.876,95.437,540.361,539.121,0.0
53855.0,STARLINK-4703,PAYLOAD,2023-07-09 11:40:37,15.08830165,9.38e-05,53.2185,347.2328,86.4906,273.6194,-4.1017e-05,-9.4e-06,0.0,0 STARLINK-4703,1 53855U 22114AP  23190.48654766 -.00000940  00000-0 -41017-4 0  9999,2 53855  53.2185 347.2328 0000938  86.4906 273.6194 15.08830165 45361,6917.91,95.438,540.424,539.127,0.0
